[{"OBJECT_NAME":"239ALFEROV (RS61S)","OBJECT_ID":"2025-155F","EPOCH":"2026-03-09T21:46:33.382848","MEAN_MOTION":15.29933217,"ECCENTRICITY":0.00084878,"INCLINATION":97.4469,"RA_OF_ASC_NODE":37.6373,"ARG_OF_PERICENTER":151.5904,"MEAN_ANOMALY":208.58,"EPHEMERIS_TYPE":0,"CLASSIFICATION_TYPE":"U","NORAD_CAT_ID":64881,"ELEMENT_SET_NO":999,"REV_AT_EPOCH":6561,"BSTAR":0.00067233359,"MEAN_MOTION_DOT":0.00019457,"MEAN_MOTION_DDOT":0},{"OBJECT_NAME":"STARLINK-36463","OBJECT_ID":"2026-002L","EPOCH":"2026-03-09T02:45:48.896064","MEAN_MOTION":15.27591974,"ECCENTRICITY":0.00015516,"INCLINATION":43.0035,"RA_OF_ASC_NODE":328.287,"ARG_OF_PERICENTER":278.2259,"MEAN_ANOMALY":81.8417,"EPHEMERIS_TYPE":0,"CLASSIFICATION_TYPE":"U","NORAD_CAT_ID":67315,"ELEMENT_SET_NO":999,"REV_AT_EPOCH":1105,"BSTAR":0.00079769983,"MEAN_MOTION_DOT":0.00021762,"MEAN_MOTION_DDOT":0}]
